STARLINK-32866          
1 62858U 25022E   26068.55763300  .00025346  00000+0  86531-3 0  9996
2 62858  53.1607 129.9608 0001504  64.0710 296.0446 15.30186452 61885
SCS-01 D                
1 63985U 25100D   26068.75607686  .00032471  00000+0  10528-2 0  9990
2 63985  97.3730 145.4097 0006346 266.2302  93.8214 15.31902149 45621
